NORAD_CAT_ID,OBJECT_NAME,OBJECT_TYPE,EPOCH,MEAN_MOTION,ECCENTRICITY,INCLINATION,RA_OF_ASC_NODE,ARG_OF_PERICENTER,MEAN_ANOMALY,BSTAR,MEAN_MOTION_DOT,MEAN_MOTION_DDOT,TLE_LINE0,TLE_LINE1,TLE_LINE2,SEMIMAJOR_AXIS,PERIOD,APOGEE,PERIGEE,DECAYED
52558.0,STARLINK-3954,PAYLOAD,2022-06-23 22:00:00,15.73203878,0.0002272,53.2158,90.2376,24.7678,149.1305,-0.00039051,-0.00055085,0.0,0 STARLINK-3954,1 52558U 22051AB  22174.91667824 -.00055085  00000-0 -39051-3 0  9990,2 52558  53.2158  90.2376 0002272  24.7678 149.1305 15.73203878  1306,6727.884,91.533,351.278,348.221,0.0
52558.0,STARLINK-3954,PAYLOAD,2022-06-24 06:00:02,15.73142534,0.0002402,53.2153,88.5894,20.6956,242.1558,0.00056601,0.00079379,0.0,0 STARLINK-3954,1 52558U 22051AB  22175.25002315  .00079379  00000-0  56601-3 0  9996,2 52558  53.2153  88.5894 0002402  20.6956 242.1558 15.73142534  7047,6728.059,91.537,351.54,348.30800000000005,0.0
52558.0,STARLINK-3954,PAYLOAD,2022-06-24 14:00:01,15.73210884,0.0002202,53.2159,86.9274,24.7818,327.0167,-0.00026123,-0.00037143,0.0,0 STARLINK-3954,1 52558U 22051AB  22175.58334491 -.00037143  00000-0 -26123-3 0  9996,2 52558  53.2159  86.9274 0002202  24.7818 327.0167 15.73210884  7107,6727.864000000001,91.533,351.211,348.24800000000016,0.0
52558.0,STARLINK-3954,PAYLOAD,2022-06-24 22:00:01,15.73386973,0.0002322,53.2161,85.2775,24.206,56.5632,-0.0029794,-0.00402687,0.0,0 STARLINK-3954,1 52558U 22051AB  22175.91668981 -.00402687  00000-0 -29794-2 0  9992,2 52558  53.2161  85.2775 0002322  24.2060  56.5632 15.73386973  7154,6727.361999999999,91.522,350.789,347.665,0.0
52558.0,STARLINK-3954,PAYLOAD,2022-06-25 06:00:00,15.73168905,0.0002281,53.2158,83.6408,17.1261,152.5488,0.00047862,0.00067003,0.0,0 STARLINK-3954,1 52558U 22051AB  22176.25001157  .00067003  00000-0  47862-3 0  9990,2 52558  53.2158  83.6408 0002281  17.1261 152.5488 15.73168905  7208,6727.984,91.535,351.3830000000001,348.314,0.0
52558.0,STARLINK-3954,PAYLOAD,2022-06-25 14:00:01,15.73219105,0.0002078,53.2162,81.9892,20.9,237.71,-3.2989e-05,-5.252e-05,0.0,0 STARLINK-3954,1 52558U 22051AB  22176.58334491 -.00005252  00000-0 -32989-4 0  9991,2 52558  53.2162  81.9892 0002078  20.9000 237.7100 15.73219105  1309,6727.840999999999,91.532,351.10400000000016,348.30800000000005,0.0
52558.0,STARLINK-3954,PAYLOAD,2022-06-25 22:00:00,15.73209777,0.0002256,53.2161,80.3409,25.2223,322.3386,7.196600000000001e-05,9.495e-05,0.0,0 STARLINK-3954,1 52558U 22051AB  22176.91667824  .00009495  00000-0  71966-4 0  9996,2 52558  53.2161  80.3409 0002256  25.2223 322.3386 15.73209777  7316,6727.8669999999975,91.533,351.25,348.214,0.0
52558.0,STARLINK-3954,PAYLOAD,2022-06-26 14:00:01,15.73221092,0.0001997,53.2157,77.0406,23.3379,142.2223,-1.5182e-05,-2.753e-05,0.0,0 STARLINK-3954,1 52558U 22051AB  22177.58335648 -.00002753  00000-0 -15182-4 0  9996,2 52558  53.2157  77.0406 0001997  23.3379 142.2223 15.73221092  1309,6727.835,91.532,351.0440000000001,348.356,0.0
52558.0,STARLINK-3954,PAYLOAD,2022-06-26 22:00:00,15.73225695,0.0002116,53.216,75.3927,24.7871,229.6599,-0.00018835,-0.00027002,0.0,0 STARLINK-3954,1 52558U 22051AB  22177.91667824 -.00027002  00000-0 -18835-3 0  9998,2 52558  53.2160  75.3927 0002116  24.7871 229.6599 15.73225695  1307,6727.821999999999,91.532,351.111,348.26300000000015,0.0
52558.0,STARLINK-3954,PAYLOAD,2022-06-27 06:00:00,15.73189564,0.0002168,53.216,73.7439,13.8037,329.5476,-0.00010323,-0.00015078,0.0,0 STARLINK-3954,1 52558U 22051AB  22178.25001157 -.00015078  00000-0 -10323-3 0  9991,2 52558  53.2160  73.7439 0002168  13.8037 329.5476 15.73189564  7525,6727.925,91.534,351.249,348.331,0.0
52558.0,STARLINK-3954,PAYLOAD,2022-06-27 14:00:01,15.73146395,0.0001956,53.2163,72.0925,18.9574,53.301,0.0006362999999999,0.00089433,0.0,0 STARLINK-3954,1 52558U 22051AB  22178.58334491  .00089433  00000-0  63630-3 0  9990,2 52558  53.2163  72.0925 0001956  18.9574  53.3010 15.73146395  1307,6728.0480000000025,91.536,351.22900000000016,348.597,0.0
52558.0,STARLINK-3954,PAYLOAD,2022-06-27 22:00:00,15.7323411,0.000211,53.2162,70.4446,17.1927,143.9632,-0.0006057,-0.00084907,0.0,0 STARLINK-3954,1 52558U 22051AB  22178.91667824 -.00084907  00000-0 -60570-3 0  9999,2 52558  53.2162  70.4446 0002110  17.1927 143.9632 15.73234110  7622,6727.7980000000025,91.531,351.082,348.24300000000005,0.0
52558.0,STARLINK-3954,PAYLOAD,2022-06-28 14:00:01,15.7318479,0.0001909,53.2159,67.1428,16.8976,322.074,-0.00023222,-0.00033064,0.0,0 STARLINK-3954,1 52558U 22051AB  22179.58334491 -.00033064  00000-0 -23222-3 0  9995,2 52558  53.2159  67.1428 0001909  16.8976 322.0740 15.73184790  7736,6727.939,91.534,351.088,348.519,0.0
52558.0,STARLINK-3954,PAYLOAD,2022-06-28 22:00:00,15.732201000000002,0.0002307,53.2161,65.4836,20.499,47.364,-0.0012279,-0.00169694,0.0,0 STARLINK-3954,1 52558U 22051AB  22179.91667824 -.00169694  00000-0 -12279-2 0  9999,2 52558  53.2161  65.4836 0002307  20.4990  47.3640 15.73220100  1302,6727.8380000000025,91.532,351.255,348.151,0.0
52558.0,STARLINK-3954,PAYLOAD,2022-06-29 06:00:00,15.7331457,0.0002059,53.2164,63.8226,26.8647,129.8573,-0.0065183,-0.0083393,0.0,0 STARLINK-3954,1 52558U 22051AB  22180.25001157 -.00833930  00000-0 -65183-2 0  9992,2 52558  53.2164  63.8226 0002059  26.8647 129.8573 15.73314570  7833,6727.569,91.527,350.819,348.048,0.0
52558.0,STARLINK-3954,PAYLOAD,2022-06-29 14:00:01,15.7271644,0.0002022,53.2173,62.1602,24.1645,221.2743,-0.0085194,-0.01054129,0.0,0 STARLINK-3954,1 52558U 22051AB  22180.58334491 -.01054129  00000-0 -85194-2 0  9998,2 52558  53.2173  62.1602 0002022  24.1645 221.2743 15.72716440  1305,6729.274,91.561,352.5,349.779,0.0
52558.0,STARLINK-3954,PAYLOAD,2022-06-29 22:00:00,15.71957622,0.0002101,53.2174,60.5106,20.0009,313.3211,-0.0088045,-0.01054516,0.0,0 STARLINK-3954,1 52558U 22051AB  22180.91667824 -.01054516  00000-0 -88045-2 0  9992,2 52558  53.2174  60.5106 0002101  20.0009 313.3211 15.71957622  1305,6731.44,91.606,354.719,351.89,0.0
52558.0,STARLINK-3954,PAYLOAD,2022-06-30 06:00:00,15.71197783,0.0001877,53.2171,58.8607,24.4549,35.8394,-0.0090806,-0.01053014,0.0,0 STARLINK-3954,1 52558U 22051AB  22181.25001157 -.01053014  00000-0 -90806-2 0  9991,2 52558  53.2171  58.8607 0001877  24.4549  35.8394 15.71197783  7997,6733.61,91.65,356.73900000000015,354.211,0.0
52558.0,STARLINK-3954,PAYLOAD,2022-06-30 14:00:01,15.70437819,0.0001992,53.2172,57.2111,27.1042,119.2508,-0.0093789,-0.01053228,0.0,0 STARLINK-3954,1 52558U 22051AB  22181.58334491 -.01053228  00000-0 -93789-2 0  9997,2 52558  53.2172  57.2111 0001992  27.1042 119.2508 15.70437819  1306,6735.781999999997,91.694,358.98900000000015,356.305,0.0
52558.0,STARLINK-3954,PAYLOAD,2022-06-30 22:00:00,15.69677807,0.000212,53.2172,55.5672,24.8352,206.6654,-0.0096667,-0.01051666,0.0,0 STARLINK-3954,1 52558U 22051AB  22181.91667824 -.01051666  00000-0 -96667-2 0  9995,2 52558  53.2172  55.5672 0002120  24.8352 206.6654 15.69677807  8098,6737.956,91.739,361.249,358.392,0.0
52558.0,STARLINK-3954,PAYLOAD,2022-07-01 14:00:01,15.68158072,0.0001321,53.2173,52.2786,43.2498,355.8079,-0.010284,-0.01050129,0.0,0 STARLINK-3954,1 52558U 22051AB  22182.58334491 -.01050129  00000-0 -10284-1 0  9993,2 52558  53.2173  52.2786 0001321  43.2498 355.8079 15.68158072  8205,6742.308000000001,91.827,365.064,363.283,0.0
52558.0,STARLINK-3954,PAYLOAD,2022-07-01 22:00:00,15.67399865,0.0001638,53.2174,50.6402,39.7831,81.6814,-0.010619,-0.01051038,0.0,0 STARLINK-3954,1 52558U 22051AB  22182.91667824 -.01051038  00000-0 -10619-1 0  9991,2 52558  53.2174  50.6402 0001638  39.7831  81.6814 15.67399865  1306,6744.483,91.872,367.452,365.24300000000005,0.0
52558.0,STARLINK-3954,PAYLOAD,2022-07-02 06:00:00,15.66641649,0.0001409999999999,53.2172,49.00100000000001,52.4237,150.5371,-0.010981,-0.01053327,0.0,0 STARLINK-3954,1 52558U 22051AB  22183.25001157 -.01053327  00000-0 -10981-1 0  9995,2 52558  53.2172  49.0010 0001410  52.4237 150.5371 15.66641649  8301,6746.659000000002,91.916,369.475,367.572,0.0
52558.0,STARLINK-3954,PAYLOAD,2022-07-02 14:00:01,15.65879928,0.000146,53.2173,47.3628,42.3712,241.1743,-0.011277,-0.01049234,0.0,0 STARLINK-3954,1 52558U 22051AB  22183.58334491 -.01049234  00000-0 -11277-1 0  9992,2 52558  53.2173  47.3628 0001460  42.3712 241.1743 15.65879928  1304,6748.846,91.961,371.697,369.726,0.0
52558.0,STARLINK-3954,PAYLOAD,2022-07-02 22:00:00,15.65122766,0.0001656,53.2173,45.73,31.561,331.6531,-0.011671,-0.01052868,0.0,0 STARLINK-3954,1 52558U 22051AB  22183.91667824 -.01052868  00000-0 -11671-1 0  9993,2 52558  53.2173  45.7300 0001656  31.5610 331.6531 15.65122766  1308,6751.023,92.006,374.006,371.77,0.0
52558.0,STARLINK-3954,PAYLOAD,2022-07-03 00:00:00,15.64929696,0.000183,53.2174,45.3219,32.4891,80.501,-0.011691,-0.01047226,0.0,0 STARLINK-3954,1 52558U 22051AB  22184.00001157 -.01047226  00000-0 -11691-1 0  9999,2 52558  53.2174  45.3219 0001830  32.4891  80.5010 15.64929696  8427,6751.578,92.017,374.67800000000005,372.207,0.0
52558.0,STARLINK-3954,PAYLOAD,2022-07-03 14:00:01,15.63601598,0.0001578,53.2173,42.4636,44.9136,114.9058,-0.01234,-0.01048046,0.0,0 STARLINK-3954,1 52558U 22051AB  22184.58334491 -.01048046  00000-0 -12340-1 0  9995,2 52558  53.2173  42.4636 0001578  44.9136 114.9058 15.63601598  1307,6755.401,92.095,378.332,376.2,0.0
52558.0,STARLINK-3954,PAYLOAD,2022-07-03 22:00:00,15.62842202,0.0001849,53.2173,40.8364,34.3248,202.4262,-0.012722,-0.01064809,0.0,0 STARLINK-3954,1 52558U 22051AB  22184.91667824 -.01064809  00000-0 -12722-1 0  9990,2 52558  53.2173  40.8364 0001849  34.3248 202.4262 15.62842202  8568,6757.589,92.14,380.703,378.204,0.0
52558.0,STARLINK-3954,PAYLOAD,2022-07-04 14:00:01,15.61321745,0.0001506,53.2176,37.5811,36.7831,351.0972,-0.013462,-0.01061762,0.0,0 STARLINK-3954,1 52558U 22051AB  22185.58334491 -.01061762  00000-0 -13462-1 0  9992,2 52558  53.2176  37.5811 0001506  36.7831 351.0972 15.61321745  1302,6761.975,92.23,384.858,382.822,0.0
